{
  "norad_id": 66538,
  "name": "STARLINK-35577",
  "history": [
    {
      "epoch": "2026-03-28T15:37:33.600576",
      "apogee_km": 484.69770327131664,
      "perigee_km": 481.1528668311212,
      "latitude_deg": -2.6592295044297196,
      "longitude_deg": 176.30400064005516,
      "semi_major_axis_km": 6861.062285051218,
      "eccentricity": 0.00025833,
      "inclination_deg": 43.0027,
      "raan_deg": 170.8207,
      "arg_perigee_deg": 266.6113,
      "mean_anomaly_deg": 93.4444,
      "mean_motion_rev_day": 15.27621349
    }
  ]
}