{"fetched_at":"2026-03-30T09:12:31Z","count":15922,"tles":[{"name":"STARLINK-35577","line1":"1 66538U 25265Y   26087.65108334  .00033424  00000+0  12170-2 0  9999","line2":"2 66538  43.0027 170.8207 0002583 266.6113  93.4444 15.27621349 20015","category":"Starlink"}]}